1 29155U 06018A   12020.19678699 -.00000261  00000-0  10000-3 0  9137
2 29155 000.3777 081.1341 0001654 309.0806 085.0398 01.00273207 20757